0 SCOUT X-4 R/B
1   933U 64076C   18279.85929235 +.00000187 +00000-0 +58944-4 0  9998
2   933 081.3400 195.0847 1073536 011.2074 351.0999 12.77274372477373
0 THOR ABLESTAR R/B
1   953U 64083A   18279.87358528 +.00000006 +00000-0 -50195-5 0  9993
2   953 090.0079 189.2039 0033924 040.4169 001.6557 13.58620505667010
0 THOR ABLESTAR R/B
1   953U 64083A   18280.82920124  .00000012  00000-0  29668-5 0  9994
2   953  90.0079 189.2047 0033851  37.7148 355.5045 13.58620551667603
0 OPS 6582 (TRANSIT 5E-5)
1   959U 64083C   18279.88823986 +.00000052 +00000-0 +56219-4 0  9997
2   959 090.0004 187.5562 0040885 316.6250 086.2331 13.61565536667700
0 EXPLORER 26 (EPE-D)
1   963U 64086A   18279.27690857 +.00043452 -11022-4 +40711-3 0  9998
2   963 019.7121 276.5216 0977302 120.1131 249.9736 13.78955115106830
0 EXPLORER 26 (EPE-D)
1   963U 64086A   18280.21739413  .00037338 -11161-4  34458-3 0  9997
2   963  19.7123 271.0151 0976979 130.1388 238.8776 13.79019047106976
0 OPS 6582 (TRANSIT 5B-5)
1   965U 64083D   18279.86015124 +.00000020 +00000-0 +15091-4 0  9997
2   965 090.0189 192.3999 0039244 211.6298 189.7329 13.56721509662633
0 THOR ABLESTAR DEB
1   967U 64083F   18279.93071944 +.00000183 +00000-0 +20989-3 0  9990
2   967 089.9849 183.3725 0028957 094.2248 035.3445 13.65920028672263
0 SCOUT X-4 DEB
1   976U 64064C   18279.73600135 +.00000148 +00000-0 +83717-4 0  9997
2   976 079.3183 028.7369 0119218 240.3743 118.5501 14.04869629748127
0 SCOUT X-4 DEB
1   976U 64064C   18280.51940430  .00000142  00000-0  80368-4 0  9993
2   976  79.3183  27.8159 0119250 238.3146 120.6344 14.04869793748709
0 SCOUT X-4 DEB
1   977U 64064D   18280.58123583  .00000124  00000-0  11017-3 0  9997
2   977  80.0471 215.9287 0127267 211.2747 148.0788 13.77395644703081
0 SCOUT X-4 DEB
1   977U 64064D   18279.63692377 +.00000133 +00000-0 +11944-3 0  9992
2   977 080.0470 216.9172 0127250 213.7241 145.5767 13.77395496702502
0 TIROS 9
1   978U 65004A   18279.89567404 -.00000182 +00000-0 -20854-3 0  9994
2   978 096.3979 314.9597 1158737 349.8227 008.1088 12.10876214371462
0 DELTA 1 R/B
1   979U 65004B   18279.70720753 +.00000091 +00000-0 +13956-3 0  9995
2   979 096.4295 007.4685 1141562 256.1226 091.0506 12.14636275374288
0 TITAN 3A DEB (TRUSS)
1  1000U 65008B   18279.87115558 +.00000011 +00000-0 +36244-3 0  9991
2  1000 032.1402 161.6571 0011313 280.1983 079.7238 09.88889163939166
0 TITAN 3A TRANSTAGE R/B
1  1001U 65008A   18279.55408333 +.00000008 +00000-0 +00000-0 0  9997
2  1001 032.1488 323.1593 0017472 128.3836 231.8234 09.90725521942725
0 LES 1
1  1002U 65008C   18279.92889431 +.00000010 +00000-0 +22039-3 0  9993
2  1002 032.1411 222.1113 0015495 193.5606 166.4475 09.88353079938143
0 THOR ABLESTAR DEB
1  1099U 64083G   18279.78389880 +.00000066 +00000-0 +72798-4 0  9997
2  1099 089.9416 171.3876 0040783 301.3995 090.7518 13.61876652599809
0 THOR ABLESTAR DEB
1  1099U 64083G   18280.81438350  .00000063  00000-0  69870-4 0  9994
2  1099  89.9415 171.3816 0040705 298.2487 103.0771 13.61876700600419
0 SECOR 3
1  1208U 65016E   18280.81171433 -.00000035  00000-0  12711-4 0  9991
2  1208  70.0808  44.4112 0020234 186.7199 328.6416 13.95566490727626
0 SECOR 3
1  1208U 65016E   18279.80763046 -.00000030 +00000-0 +16605-4 0  9996
2  1208 070.0807 046.5478 0020295 188.0035 324.1209 13.95566472727063
0 GGSE 2
1  1244U 65016B   18279.90057609 -.00000040 +00000-0 +87108-5 0  9996
2  1244 070.0802 049.2870 0021227 190.8820 169.1829 13.95616500725963
0 OPS 4988 (GREB 6)
1  1271U 65016A   18279.88258510 -.00000030 +00000-0 +16600-4 0  9994
2  1271 070.0819 025.8799 0020267 175.0506 319.9887 13.96100946726671
0 PORCUPINE 1
1  1272U 65016H   18279.92097873 -.00000014 +00000-0 +28639-4 0  9990
2  1272 070.0777 097.5607 0023658 214.0810 145.8777 13.94198467724695
0 SOLRAD 7B
1  1291U 65016D   18279.89492170 -.00000015 +00000-0 +27597-4 0  9999
2  1291 070.0776 088.3208 0022514 215.2217 144.7401 13.94570593724926
0 GGSE 3
1  1292U 65016C   18279.91758737 -.00000003 +00000-0 +33225-4 0  9999
2  1292 070.0772 226.1804 0017018 070.4267 289.8677 14.00544652730991
0 OSCAR 3
1  1293U 65016F   18279.67324512 +.00000150 +00000-0 +12323-3 0  9990
2  1293 070.0769 016.6543 0020354 306.0614 053.8612 14.06284513736842
0 OSCAR 3
1  1293U 65016F   18280.66903815  .00000105  00000-0  96005-4 0  9990
2  1293  70.0769  14.4967 0020422 304.8601  55.0590 14.06284848737487
0 OPS 4682 (SNAPSHOT)
1  1314U 65027A   18279.96867535 +.00000045 +00000-0 +14210-3 0  9995
2  1314 090.3014 298.0507 0031809 059.0366 359.1634 12.91754528268213
0 SECOR 4 (EGRS 4)
1  1315U 65027B   18279.91387916 +.00000011 +00000-0 +15585-4 0  9991
2  1315 090.2970 308.4825 0030534 341.1065 136.7196 12.92601432523984
0 OPS 4682 DEB
1  1316U 65027C   18279.65188327 -.00000084 +00000-0 -23250-3 0  9997
2  1316 090.2861 318.3202 0032534 333.3464 026.5995 13.18499688548247
0 OPS 4682 DEB
1  1316U 65027C   18280.63841792 -.00000151  00000-0 -40221-3 0  9991
2  1316  90.2861 318.3471 0032525 330.3961  29.5329 13.18498898548824
0 DELTA 1 R/B(2)
1  1318U 65028B   18279.55448664 -.00000020 +00000-0 +00000-0 0  9996
2  1318 018.0714 327.7601 6945038 147.2960 351.0412 02.11822052047758
0 EXPLORER 27
1  1328U 65032A   18280.91964802 -.00000074  00000-0  18587-4 0  9993
2  1328  41.1834 154.5911 0253524  93.2838 269.6949 13.38579397612275
0 SL-8 DEB
1  1335U 65020E   18279.92249520 +.00000264 +00000-0 +13791-3 0  9991
2  1335 056.0789 236.6788 0544657 021.0037 341.2396 13.79628950621527
0 SCOUT X-4 R/B
1  1358U 65032B   18279.80442910 -.00000056 +00000-0 +45820-4 0  9993
2  1358 041.1900 195.9818 0257118 027.1055 334.2866 13.38031908611207
0 SCOUT X-4 R/B
1  1358U 65032B   18280.77500464 -.00000048  00000-0  59177-4 0  9991
2  1358  41.1899 191.8350 0257063  32.1553 329.4597 13.38032011611807
0 TITAN 3A TRANSTAGE R/B
1  1359U 65034A   18279.87319378 +.00000014 +00000-0 +24656-2 0  9999
2  1359 032.1134 111.0739 0488113 090.6159 275.0244 09.17112306790663
0 LES 2
1  1360U 65034B   18279.77342481 -.00000012 +00000-0 +00000-0 0  9995
2  1360 032.0753 198.6631 3970133 106.6918 299.7120 04.64819621907314
0 LCS 1
1  1361U 65034C   18279.63335676 +.00000002 +00000-0 -86432-3 0  9994
2  1361 032.1458 010.1959 0013154 024.7680 335.3447 09.89294709931540
0 OPS 4682 DEB
1  1389U 65027D   18279.91972809 +.00000779 +00000-0 +21735-2 0  9996
2  1389 089.7243 275.7670 0025548 181.7779 241.8828 13.11262201542030
0 OPS 4682 DEB
1  1389U 65027D   18280.47285726  .00000777  00000-0  21679-2 0  9999
2  1389  89.7243 275.7526 0025577 180.2416 332.9968 13.11262919542497
0 OPS 8480 (TRANSIT 5B-6)
1  1420U 65048A   18279.94722515 +.00000061 +00000-0 +79254-4 0  9990
2  1420 089.9395 312.2639 0072194 293.9742 119.0330 13.51331316623866
0 THOR ABLESTAR DEB
1  1425U 65048C   18279.69435880 +.00000042 +00000-0 +51184-4 0  9994
2  1425 089.9360 311.5361 0075273 051.5079 086.5195 13.48762357621560
0 THOR ABLESTAR R/B
1  1428U 65048B   18279.76272895 +.00000009 +00000-0 -13178-5 0  9996
2  1428 089.9355 312.0523 0058495 058.0660 073.6465 13.52497906628742
0 TIROS 10
1  1430U 65051A   18279.89461835 -.00000000 +00000-0 +13125-4 0  9993
2  1430 098.2105 057.7085 0055306 253.9378 105.5716 14.40233925791277
0 SL-8 DEB
1  1479U 65020BD  18279.93052374 +.00000710 +00000-0 +15579-2 0  9991
2  1479 056.0300 185.1173 0763700 116.2014 251.9441 12.58616165442402
0 SL-8 DEB
1  1480U 65020BE  18279.54822967 -.00000254 +00000-0 -19395-3 0  9999
2  1480 056.0665 297.7930 0854117 109.5107 260.0017 12.62597767454987
0 SL-8 DEB
1  1480U 65020BE  18280.49834470 -.00000243  00000-0 -18002-3 0  9999
2  1480  56.0664 295.1302 0854079 110.8352 258.6108 12.62597480455555
0 SCOUT B R/B
1  1502U 65063B   18279.88078722 -.00000089 +00000-0 -38440-3 0  9998
2  1502 069.2309 182.3986 0789347 242.1891 260.5791 11.78544360287243
0 THOR ABLESTAR DEB
1  1504U 65065A   18279.49615590 +.00000097 +00000-0 +16121-3 0  9998
2  1504 089.8244 272.8672 0064747 277.6641 200.9104 13.39403673591361
0 THOR ABLESTAR DEB
1  1504U 65065A   18280.47554652  .00000095  00000-0  15811-3 0  9992
2  1504  89.8245 272.8501 0064739 274.7949 243.4787 13.39403870591899
0 SECOR 5 (EGRS 5)
1  1506U 65063A   18279.87638127 -.00000070 +00000-0 -24715-3 0  9992
2  1506 069.2337 177.3081 0791148 234.7709 269.8126 11.78633546287086
0 THOR ABLESTAR R/B
1  1508U 65065B   18279.94187147 +.00000025 +00000-0 +32742-4 0  9993
2  1508 090.1368 264.4048 0041125 340.0609 070.5660 13.35948774590274
0 THOR ABLESTAR R/B
1  1508U 65065B   18280.63338134  .00000027  00000-0  36349-4 0  9994
2  1508  90.1369 264.4142 0041064 338.0684 156.3663 13.35948800590830
0 DODECAPOLE 2
1  1510U 65065C   18280.79065824  .00000923  00000-0  68842-3 0  9994
2  1510  90.0336  12.4101 0039223  10.7848 349.4159 13.93814667640762
0 DODECAPOLE 2
1  1510U 65065C   18279.85739107 +.00000837 +00000-0 +62403-3 0  9992
2  1510 090.0336 012.4068 0039342 013.8356 346.3887 13.93812590640233
0 THOR ABLESTAR DEB
1  1511U 65065D   18279.95983753 +.00000011 +00000-0 +31723-5 0  9999
2  1511 089.8481 233.0022 0068582 184.1052 242.5372 13.33964402586009
0 TEMPSAT 1
1  1512U 65065E   18279.81500346 +.00000022 +00000-0 +25430-4 0  9997
2  1512 089.8449 234.5289 0068437 218.6607 168.5929 13.33413639585514
0 TEMPSAT 1
1  1512U 65065E   18280.79150887  .00000018  00000-0  18058-4 0  9990
2  1512  89.8450 234.5141 0068510 215.8601 176.1598 13.33413668585641
0 OPS 8464 (TRANSIT 5B-7)
1  1514U 65065F   18279.92708519 +.00000041 +00000-0 +60244-4 0  9996
2  1514 089.8248 253.6768 0071159 152.6077 260.1731 13.34932827586416
